{
  "norad_id": 65101,
  "name": "STARLINK-34285",
  "history": [
    {
      "epoch": "2026-03-28T20:14:04.321248Z",
      "apogee_km": 476.3248116620571,
      "perigee_km": 473.9698860940953,
      "latitude_deg": 4.344491051254025e-06,
      "longitude_deg": 167.8216593630086,
      "height_km": 475.85383274247295,
      "semi_major_axis_km": 6853.284348878075,
      "eccentricity": 0.00017181,
      "inclination_deg": 53.1595,
      "raan_deg": 297.5974,
      "arg_perigee_deg": 80.6669,
      "mean_anomaly_deg": 279.4526,
      "mean_motion_rev_day": 15.30222681
    },
    {
      "epoch": "2026-03-28T23:22:10.675488Z",
      "apogee_km": 475.95513308959016,
      "perigee_km": 474.4583628150376,
      "latitude_deg": -2.8846917338100543e-05,
      "longitude_deg": 120.05830466613178,
      "height_km": 475.9577200949578,
      "semi_major_axis_km": 6853.343747952314,
      "eccentricity": 0.0001092,
      "inclination_deg": 53.1591,
      "raan_deg": 296.9893,
      "arg_perigee_deg": 78.6499,
      "mean_anomaly_deg": 281.4624,
      "mean_motion_rev_day": 15.30202787
    },
    {
      "epoch": "2026-03-30T02:01:04.976832Z",
      "apogee_km": 475.96955259619153,
      "perigee_km": 474.3891778423722,
      "latitude_deg": 1.5055132524998868e-05,
      "longitude_deg": 74.07967077179583,
      "height_km": 476.0664529788052,
      "semi_major_axis_km": 6853.316365219282,
      "eccentricity": 0.0001153,
      "inclination_deg": 53.1584,
      "raan_deg": 291.8313,
      "arg_perigee_deg": 89.204,
      "mean_anomaly_deg": 270.9093,
      "mean_motion_rev_day": 15.30211958
    }
  ]
}